NORAD_CAT_ID,OBJECT_NAME,OBJECT_TYPE,EPOCH,MEAN_MOTION,ECCENTRICITY,INCLINATION,RA_OF_ASC_NODE,ARG_OF_PERICENTER,MEAN_ANOMALY,BSTAR,MEAN_MOTION_DOT,MEAN_MOTION_DDOT,TLE_LINE0,TLE_LINE1,TLE_LINE2,SEMIMAJOR_AXIS,PERIOD,APOGEE,PERIGEE,DECAYED
53890.0,STARLINK-5050,PAYLOAD,2023-09-22 15:33:32,15.08853987,0.0001335,53.2189,4.8594,101.8604,258.2538,0.00045579,6.976e-05,0.0,0 STARLINK-5050,1 53890U 22119E   23265.64828808  .00006976  00000-0  45579-3 0  9993,2 53890  53.2189   4.8594 0001335 101.8604 258.2538 15.08853987 56454,6917.838,95.437,540.626,538.779,0.0
53890.0,STARLINK-5050,PAYLOAD,2023-09-23 12:13:32,15.08848824,0.0001438,53.2194,0.9937,105.8441,254.271,5.7216e-05,6.23e-06,0.0,0 STARLINK-5050,1 53890U 22119E   23266.50940465  .00000623  00000-0  57216-4 0  9998,2 53890  53.2194   0.9937 0001438 105.8441 254.2710 15.08848824 56165,6917.853,95.437,540.713,538.724,0.0
53890.0,STARLINK-5050,PAYLOAD,2023-09-23 13:48:55,15.08850957,0.0001459,53.2186,0.6941,96.6101,263.5057,9.0331e-05,1.15e-05,0.0,0 STARLINK-5050,1 53890U 22119E   23266.57564384  .00001150  00000-0  90331-4 0  9998,2 53890  53.2186   0.6941 0001459  96.6101 263.5057 15.08850957 56595,6917.847,95.437,540.721,538.703,0.0
53890.0,STARLINK-5050,PAYLOAD,2023-09-24 10:28:56,15.08845824,0.0001322,53.2191,356.8306,105.8942,254.2195,0.00011914,1.609e-05,0.0,0 STARLINK-5050,1 53890U 22119E   23267.43676481  .00001609  00000-0  11914-3 0  9994,2 53890  53.2191 356.8306 0001322 105.8942 254.2195 15.08845824 56303,6917.863,95.437,540.642,538.813,0.0
53890.0,STARLINK-5050,PAYLOAD,2023-09-24 13:39:42,15.08851337,0.0001311,53.2176,356.2346,83.5454,276.5688,0.00021818,3.187e-05,0.0,0 STARLINK-5050,1 53890U 22119E   23267.56924160  .00003187  00000-0  21818-3 0  9995,2 53890  53.2176 356.2346 0001311  83.5454 276.5688 15.08851337 56740,6917.846,95.437,540.618,538.804,0.0
53890.0,STARLINK-5050,PAYLOAD,2023-09-25 05:33:34,15.08844236,0.0001491,53.2184,353.262,100.6973,259.4187,0.00017495,2.498e-05,0.0,0 STARLINK-5050,1 53890U 22119E   23268.23164906  .00002498  00000-0  17495-3 0  9994,2 53890  53.2184 353.2620 0001491 100.6973 259.4187 15.08844236 56426,6917.867,95.437,540.764,538.701,0.0
53890.0,STARLINK-5050,PAYLOAD,2023-09-25 13:30:29,15.08851548,0.0001382,53.2171,351.7748,98.6303,261.4846,0.00040885,6.227e-05,0.0,0 STARLINK-5050,1 53890U 22119E   23268.56284362  .00006227  00000-0  40885-3 0  9992,2 53890  53.2171 351.7748 0001382  98.6303 261.4846 15.08851548 56898,6917.845,95.437,540.666,538.754,0.0
53890.0,STARLINK-5050,PAYLOAD,2023-09-26 11:45:53,15.08863182,0.000145,53.2184,347.6129,94.2533,265.8625,0.0007457,0.00011607,0.0,0 STARLINK-5050,1 53890U 22119E   23269.49019867  .00011607  00000-0  74570-3 0  9997,2 53890  53.2184 347.6129 0001450  94.2533 265.8625 15.08863182 57039,6917.81,95.436,540.678,538.671,0.0
53890.0,STARLINK-5050,PAYLOAD,2023-09-27 10:01:17,15.08838548,0.000141,53.2173,343.447,105.4665,254.6483,-8.9883e-05,-1.718e-05,0.0,0 STARLINK-5050,1 53890U 22119E   23270.41756186 -.00001718  00000-0 -89883-4 0  9991,2 53890  53.2173 343.4470 0001410 105.4665 254.6483 15.08838548 56751,6917.885,95.438,540.725,538.774,0.0
53890.0,STARLINK-5050,PAYLOAD,2023-09-27 11:36:40,15.0883799,0.0001401,53.2174,343.1506,100.3121,259.8029,-7.2467e-05,-1.441e-05,0.0,0 STARLINK-5050,1 53890U 22119E   23270.48380325 -.00001441  00000-0 -72467-4 0  9999,2 53890  53.2174 343.1506 0001401 100.3121 259.8029 15.08837990 57181,6917.887,95.438,540.721,538.782,0.0
53890.0,STARLINK-5050,PAYLOAD,2023-09-28 11:27:28,15.08842362,0.0001324,53.2176,338.6899,102.547,257.567,-6.7559e-05,-1.363e-05,0.0,0 STARLINK-5050,1 53890U 22119E   23271.47740746 -.00001363  00000-0 -67559-4 0  9995,2 53890  53.2176 338.6899 0001324 102.5470 257.5670 15.08842362 56918,6917.873,95.437,540.654,538.822,0.0
53890.0,STARLINK-5050,PAYLOAD,2023-09-28 14:38:14,15.08839454,0.000132,53.2177,338.0953,99.0591,261.055,5.4274e-05,5.76e-06,0.0,0 STARLINK-5050,1 53890U 22119E   23271.60988584  .00000576  00000-0  54274-4 0  9997,2 53890  53.2177 338.0953 0001320  99.0591 261.0550 15.08839454 57358,6917.882,95.438,540.66,538.834,0.0
53890.0,STARLINK-5050,PAYLOAD,2023-09-28 16:13:37,15.08840862,0.0001307,53.2176,337.798,98.3338,261.7802,6.402e-05,7.31e-06,0.0,0 STARLINK-5050,1 53890U 22119E   23271.67612465  .00000731  00000-0  64020-4 0  9999,2 53890  53.2176 337.7980 0001307  98.3338 261.7802 15.08840862 57362,6917.878,95.438,540.647,538.839,0.0
53890.0,STARLINK-5050,PAYLOAD,2023-09-29 01:45:57,15.08822055,0.0001278,53.2177,336.014,96.3896,263.7241,4.0172e-05,3.51e-06,0.0,0 STARLINK-5050,1 53890U 22119E   23272.07357985  .00000351  00000-0  40172-4 0  9997,2 53890  53.2177 336.0140 0001278  96.3896 263.7241 15.08822055 57001,6917.935,95.439,540.684,538.916,0.0
53890.0,STARLINK-5050,PAYLOAD,2023-09-29 11:18:15,15.0883663,0.0001337,53.2176,334.2298,101.61,258.5042,0.00019138,2.759e-05,0.0,0 STARLINK-5050,1 53890U 22119E   23272.47101283  .00002759  00000-0  19138-3 0  9990,2 53890  53.2176 334.2298 0001337 101.6100 258.5042 15.08836630 57069,6917.891,95.438,540.681,538.831,0.0
53890.0,STARLINK-5050,PAYLOAD,2023-09-29 12:53:38,15.08841603,0.0001439,53.2169,333.9328,99.9777,260.1378,0.00032686,4.918e-05,0.0,0 STARLINK-5050,1 53890U 22119E   23272.53725289  .00004918  00000-0  32686-3 0  9997,2 53890  53.2169 333.9328 0001439  99.9777 260.1378 15.08841603 57497,6917.875,95.437,540.736,538.745,0.0
53890.0,STARLINK-5050,PAYLOAD,2023-09-30 00:01:20,15.08841494,0.0001437,53.2168,331.8516,88.5821,271.5336,0.00026027,3.857e-05,0.0,0 STARLINK-5050,1 53890U 22119E   23273.00093447  .00003857  00000-0  26027-3 0  9997,2 53890  53.2168 331.8516 0001437  88.5821 271.5336 15.08841494 57560,6917.876,95.437,540.735,538.747,0.0
53890.0,STARLINK-5050,PAYLOAD,2023-09-30 14:19:48,15.08854772,0.0001357,53.2165,329.1753,92.9299,267.1849,0.00036166,5.475e-05,0.0,0 STARLINK-5050,1 53890U 22119E   23273.59708726  .00005475  00000-0  36166-3 0  9997,2 53890  53.2165 329.1753 0001357  92.9299 267.1849 15.08854772 57236,6917.835,95.437,540.639,538.761,0.0
53890.0,STARLINK-5050,PAYLOAD,2023-09-30 20:41:21,15.08847387,0.0001501,53.2163,327.9857,92.9481,267.1682,0.00016329,2.312e-05,0.0,0 STARLINK-5050,1 53890U 22119E   23273.86204925  .00002312  00000-0  16329-3 0  9995,2 53890  53.2163 327.9857 0001501  92.9481 267.1682 15.08847387 57272,6917.858,95.437,540.761,538.684,0.0
53890.0,STARLINK-5050,PAYLOAD,2023-10-01 12:35:12,15.08848968,0.0001622,53.2161,325.0119,89.5694,270.5484,0.00016131,2.281e-05,0.0,0 STARLINK-5050,1 53890U 22119E   23274.52444812  .00002281  00000-0  16131-3 0  9996,2 53890  53.2161 325.0119 0001622  89.5694 270.5484 15.08848968 57793,6917.853,95.437,540.84,538.596,0.0
53890.0,STARLINK-5050,PAYLOAD,2023-10-01 20:32:08,15.08842845,0.000172,53.2159,323.5249,78.2702,281.8483,8.5466e-05,1.072e-05,0.0,0 STARLINK-5050,1 53890U 22119E   23274.85565056  .00001072  00000-0  85466-4 0  9991,2 53890  53.2159 323.5249 0001720  78.2702 281.8483 15.08842845 57849,6917.872,95.437,540.927,538.547,0.0
53890.0,STARLINK-5050,PAYLOAD,2023-10-01 23:42:54,15.08823575,0.0001522,53.2157,322.9304,88.2629,271.8538,-0.00035014,-5.854e-05,0.0,0 STARLINK-5050,1 53890U 22119E   23274.98813562 -.00005854  00000-0 -35014-3 0  9990,2 53890  53.2157 322.9304 0001522  88.2629 271.8538 15.08823575 57446,6917.931,95.439,540.849,538.743,0.0
53890.0,STARLINK-5050,PAYLOAD,2023-10-02 20:22:55,15.08840748,0.0001692,53.2161,319.0649,83.4629,276.6556,1.8834e-05,1.2e-07,0.0,0 STARLINK-5050,1 53890U 22119E   23275.84925767  .00000012  00000-0  18834-4 0  9998,2 53890  53.2161 319.0649 0001692  83.4629 276.6556 15.08840748 57573,6917.878,95.438,540.914,538.573,0.0
53890.0,STARLINK-5050,PAYLOAD,2023-10-03 09:06:00,15.08863872,0.0001777,53.215,316.6854,83.4714,276.648,0.0011814,0.00018576,0.0,0 STARLINK-5050,1 53890U 22119E   23276.37917618  .00018576  00000-0  11814-2 0  9996,2 53890  53.2150 316.6854 0001777  83.4714 276.6480 15.08863872 57659,6917.807,95.436,540.902,538.443,0.0
53890.0,STARLINK-5050,PAYLOAD,2023-10-04 08:56:47,15.08858776,0.0001607,53.2158,312.2242,100.8335,259.2838,0.00085917,0.00013419,0.0,0 STARLINK-5050,1 53890U 22119E   23277.37277577  .00013419  00000-0  85917-3 0  9997,2 53890  53.2158 312.2242 0001607 100.8335 259.2838 15.08858776 57803,6917.823,95.436,540.8,538.576,0.0
53890.0,STARLINK-5050,PAYLOAD,2023-10-04 10:32:10,15.08853897,0.0001657,53.2151,311.9264,96.055,264.0631,0.00076653,0.00011937,0.0,0 STARLINK-5050,1 53890U 22119E   23277.43901434  .00011937  00000-0  76653-3 0  9990,2 53890  53.2151 311.9264 0001657  96.0550 264.0631 15.08853897 58238,6917.838,95.437,540.849,538.557,0.0
53890.0,STARLINK-5050,PAYLOAD,2023-10-05 02:26:02,15.08839684,0.0001984,53.2145,308.9537,89.9534,270.1686,0.00073509,0.0001143,0.0,0 STARLINK-5050,1 53890U 22119E   23278.10142281  .00011430  00000-0  73509-3 0  9997,2 53890  53.2145 308.9537 0001984  89.9534 270.1686 15.08839684 57916,6917.881,95.438,541.119,538.374,0.0
53890.0,STARLINK-5050,PAYLOAD,2023-10-05 08:47:35,15.0883971,0.0001697,53.2162,307.7652,91.61,268.5087,0.00013464,1.855e-05,0.0,0 STARLINK-5050,1 53890U 22119E   23278.36638142  .00001855  00000-0  13464-3 0  9995,2 53890  53.2162 307.7652 0001697  91.6100 268.5087 15.08839710 58377,6917.881,95.438,540.92,538.572,0.0
53890.0,STARLINK-5050,PAYLOAD,2023-10-06 08:38:22,15.08843026,0.0001569,53.216,303.3043,93.5951,266.5221,0.00022386,3.277e-05,0.0,0 STARLINK-5050,1 53890U 22119E   23279.35998201  .00003277  00000-0  22386-3 0  9993,2 53890  53.2160 303.3043 0001569  93.5951 266.5221 15.08843026 58524,6917.871,95.437,540.822,538.651,0.0
53890.0,STARLINK-5050,PAYLOAD,2023-10-06 18:10:41,15.08839822,0.0001519,53.216,301.5201,90.7701,269.3466,0.00016265,2.302e-05,0.0,0 STARLINK-5050,1 53890U 22119E   23279.75742403  .00002302  00000-0  16265-3 0  9995,2 53890  53.2160 301.5201 0001519  90.7701 269.3466 15.08839822 58168,6917.881,95.438,540.797,538.695,0.0
